<?xml version="1.0" encoding="UTF-8"?>
<ndm xmlns:xsi="http://www.w3.org/2001/XMLSchema-instance" xsi:noNamespaceSchemaLocation="https://sanaregistry.org/r/ndmxml_unqualified/ndmxml-2.0.0-master-2.0.xsd">
<omm id="CCSDS_OMM_VERS" version="2.0">
<header><CREATION_DATE/><ORIGINATOR/></header><body><segment><metadata><OBJECT_NAME>ORBCOMM FM24</OBJECT_NAME><OBJECT_ID>1998-053D</OBJECT_ID><CENTER_NAME>EARTH</CENTER_NAME><REF_FRAME>TEME</REF_FRAME><TIME_SYSTEM>UTC</TIME_SYSTEM><MEAN_ELEMENT_THEORY>SGP4</MEAN_ELEMENT_THEORY></metadata><data><meanElements><EPOCH>2025-11-29T01:30:26.021952</EPOCH><MEAN_MOTION>14.38599823</MEAN_MOTION><ECCENTRICITY>.0002946</ECCENTRICITY><INCLINATION>45.0067</INCLINATION><RA_OF_ASC_NODE>207.0864</RA_OF_ASC_NODE><ARG_OF_PERICENTER>350.3724</ARG_OF_PERICENTER><MEAN_ANOMALY>9.7067</MEAN_ANOMALY></meanElements><tleParameters><EPHEMERIS_TYPE>0</EPHEMERIS_TYPE><CLASSIFICATION_TYPE>U</CLASSIFICATION_TYPE><NORAD_CAT_ID>25478</NORAD_CAT_ID><ELEMENT_SET_NO>999</ELEMENT_SET_NO><REV_AT_EPOCH>42118</REV_AT_EPOCH><BSTAR>.39731E-3</BSTAR><MEAN_MOTION_DOT>.1085E-4</MEAN_MOTION_DOT><MEAN_MOTION_DDOT>0</MEAN_MOTION_DDOT></tleParameters></data></segment></body></omm>
<omm id="CCSDS_OMM_VERS" version="2.0">
<header><CREATION_DATE/><ORIGINATOR/></header><body><segment><metadata><OBJECT_NAME>ORBCOMM FM25</OBJECT_NAME><OBJECT_ID>1998-053E</OBJECT_ID><CENTER_NAME>EARTH</CENTER_NAME><REF_FRAME>TEME</REF_FRAME><TIME_SYSTEM>UTC</TIME_SYSTEM><MEAN_ELEMENT_THEORY>SGP4</MEAN_ELEMENT_THEORY></metadata><data><meanElements><EPOCH>2025-11-29T00:54:04.044384</EPOCH><MEAN_MOTION>14.38569053</MEAN_MOTION><ECCENTRICITY>.0005298</ECCENTRICITY><INCLINATION>45.0055</INCLINATION><RA_OF_ASC_NODE>205.5024</RA_OF_ASC_NODE><ARG_OF_PERICENTER>356.3478</ARG_OF_PERICENTER><MEAN_ANOMALY>3.7331</MEAN_ANOMALY></meanElements><tleParameters><EPHEMERIS_TYPE>0</EPHEMERIS_TYPE><CLASSIFICATION_TYPE>U</CLASSIFICATION_TYPE><NORAD_CAT_ID>25479</NORAD_CAT_ID><ELEMENT_SET_NO>999</ELEMENT_SET_NO><REV_AT_EPOCH>42147</REV_AT_EPOCH><BSTAR>.40379E-3</BSTAR><MEAN_MOTION_DOT>.1105E-4</MEAN_MOTION_DOT><MEAN_MOTION_DDOT>0</MEAN_MOTION_DDOT></tleParameters></data></segment></body></omm>
<omm id="CCSDS_OMM_VERS" version="2.0">
<header><CREATION_DATE/><ORIGINATOR/></header><body><segment><metadata><OBJECT_NAME>ORBCOMM FM26</OBJECT_NAME><OBJECT_ID>1998-053F</OBJECT_ID><CENTER_NAME>EARTH</CENTER_NAME><REF_FRAME>TEME</REF_FRAME><TIME_SYSTEM>UTC</TIME_SYSTEM><MEAN_ELEMENT_THEORY>SGP4</MEAN_ELEMENT_THEORY></metadata><data><meanElements><EPOCH>2025-11-29T02:11:10.436064</EPOCH><MEAN_MOTION>14.37550867</MEAN_MOTION><ECCENTRICITY>.0007084</ECCENTRICITY><INCLINATION>45.0055</INCLINATION><RA_OF_ASC_NODE>202.9334</RA_OF_ASC_NODE><ARG_OF_PERICENTER>10.9248</ARG_OF_PERICENTER><MEAN_ANOMALY>349.1753</MEAN_ANOMALY></meanElements><tleParameters><EPHEMERIS_TYPE>0</EPHEMERIS_TYPE><CLASSIFICATION_TYPE>U</CLASSIFICATION_TYPE><NORAD_CAT_ID>25480</NORAD_CAT_ID><ELEMENT_SET_NO>999</ELEMENT_SET_NO><REV_AT_EPOCH>42137</REV_AT_EPOCH><BSTAR>.34691E-3</BSTAR><MEAN_MOTION_DOT>.907E-5</MEAN_MOTION_DOT><MEAN_MOTION_DDOT>0</MEAN_MOTION_DDOT></tleParameters></data></segment></body></omm>
<omm id="CCSDS_OMM_VERS" version="2.0">
<header><CREATION_DATE/><ORIGINATOR/></header><body><segment><metadata><OBJECT_NAME>ORBCOMM FM27</OBJECT_NAME><OBJECT_ID>1998-053G</OBJECT_ID><CENTER_NAME>EARTH</CENTER_NAME><REF_FRAME>TEME</REF_FRAME><TIME_SYSTEM>UTC</TIME_SYSTEM><MEAN_ELEMENT_THEORY>SGP4</MEAN_ELEMENT_THEORY></metadata><data><meanElements><EPOCH>2025-11-29T00:30:57.695904</EPOCH><MEAN_MOTION>14.38602121</MEAN_MOTION><ECCENTRICITY>.0001636</ECCENTRICITY><INCLINATION>45.0039</INCLINATION><RA_OF_ASC_NODE>205.7179</RA_OF_ASC_NODE><ARG_OF_PERICENTER>8.2013</ARG_OF_PERICENTER><MEAN_ANOMALY>351.8862</MEAN_ANOMALY></meanElements><tleParameters><EPHEMERIS_TYPE>0</EPHEMERIS_TYPE><CLASSIFICATION_TYPE>U</CLASSIFICATION_TYPE><NORAD_CAT_ID>25481</NORAD_CAT_ID><ELEMENT_SET_NO>999</ELEMENT_SET_NO><REV_AT_EPOCH>42140</REV_AT_EPOCH><BSTAR>.40238E-3</BSTAR><MEAN_MOTION_DOT>.1101E-4</MEAN_MOTION_DOT><MEAN_MOTION_DDOT>0</MEAN_MOTION_DDOT></tleParameters></data></segment></body></omm>
<omm id="CCSDS_OMM_VERS" version="2.0">
<header><CREATION_DATE/><ORIGINATOR/></header><body><segment><metadata><OBJECT_NAME>ORBCOMM FM28</OBJECT_NAME><OBJECT_ID>1998-053H</OBJECT_ID><CENTER_NAME>EARTH</CENTER_NAME><REF_FRAME>TEME</REF_FRAME><TIME_SYSTEM>UTC</TIME_SYSTEM><MEAN_ELEMENT_THEORY>SGP4</MEAN_ELEMENT_THEORY></metadata><data><meanElements><EPOCH>2025-11-29T04:17:57.041952</EPOCH><MEAN_MOTION>14.38731923</MEAN_MOTION><ECCENTRICITY>.0004479</ECCENTRICITY><INCLINATION>45.0030</INCLINATION><RA_OF_ASC_NODE>142.2594</RA_OF_ASC_NODE><ARG_OF_PERICENTER>58.1892</ARG_OF_PERICENTER><MEAN_ANOMALY>301.9393</MEAN_ANOMALY></meanElements><tleParameters><EPHEMERIS_TYPE>0</EPHEMERIS_TYPE><CLASSIFICATION_TYPE>U</CLASSIFICATION_TYPE><NORAD_CAT_ID>25482</NORAD_CAT_ID><ELEMENT_SET_NO>999</ELEMENT_SET_NO><REV_AT_EPOCH>42211</REV_AT_EPOCH><BSTAR>.38442E-3</BSTAR><MEAN_MOTION_DOT>.1048E-4</MEAN_MOTION_DOT><MEAN_MOTION_DDOT>0</MEAN_MOTION_DDOT></tleParameters></data></segment></body></omm>
<omm id="CCSDS_OMM_VERS" version="2.0">
<header><CREATION_DATE/><ORIGINATOR/></header><body><segment><metadata><OBJECT_NAME>ORBCOMM FM30</OBJECT_NAME><OBJECT_ID>1999-065A</OBJECT_ID><CENTER_NAME>EARTH</CENTER_NAME><REF_FRAME>TEME</REF_FRAME><TIME_SYSTEM>UTC</TIME_SYSTEM><MEAN_ELEMENT_THEORY>SGP4</MEAN_ELEMENT_THEORY></metadata><data><meanElements><EPOCH>2025-11-29T04:49:42.822048</EPOCH><MEAN_MOTION>14.37714447</MEAN_MOTION><ECCENTRICITY>.000527</ECCENTRICITY><INCLINATION>45.0325</INCLINATION><RA_OF_ASC_NODE>28.4286</RA_OF_ASC_NODE><ARG_OF_PERICENTER>134.4848</ARG_OF_PERICENTER><MEAN_ANOMALY>225.6432</MEAN_ANOMALY></meanElements><tleParameters><EPHEMERIS_TYPE>0</EPHEMERIS_TYPE><CLASSIFICATION_TYPE>U</CLASSIFICATION_TYPE><NORAD_CAT_ID>25980</NORAD_CAT_ID><ELEMENT_SET_NO>999</ELEMENT_SET_NO><REV_AT_EPOCH>35819</REV_AT_EPOCH><BSTAR>.36429E-3</BSTAR><MEAN_MOTION_DOT>.963E-5</MEAN_MOTION_DOT><MEAN_MOTION_DDOT>0</MEAN_MOTION_DDOT></tleParameters></data></segment></body></omm>
<omm id="CCSDS_OMM_VERS" version="2.0">
<header><CREATION_DATE/><ORIGINATOR/></header><body><segment><metadata><OBJECT_NAME>ORBCOMM FM31</OBJECT_NAME><OBJECT_ID>1999-065B</OBJECT_ID><CENTER_NAME>EARTH</CENTER_NAME><REF_FRAME>TEME</REF_FRAME><TIME_SYSTEM>UTC</TIME_SYSTEM><MEAN_ELEMENT_THEORY>SGP4</MEAN_ELEMENT_THEORY></metadata><data><meanElements><EPOCH>2025-11-29T04:22:15.415104</EPOCH><MEAN_MOTION>14.37642730</MEAN_MOTION><ECCENTRICITY>.0003852</ECCENTRICITY><INCLINATION>45.0240</INCLINATION><RA_OF_ASC_NODE>21.9750</RA_OF_ASC_NODE><ARG_OF_PERICENTER>175.3777</ARG_OF_PERICENTER><MEAN_ANOMALY>184.7107</MEAN_ANOMALY></meanElements><tleParameters><EPHEMERIS_TYPE>0</EPHEMERIS_TYPE><CLASSIFICATION_TYPE>U</CLASSIFICATION_TYPE><NORAD_CAT_ID>25981</NORAD_CAT_ID><ELEMENT_SET_NO>999</ELEMENT_SET_NO><REV_AT_EPOCH>35774</REV_AT_EPOCH><BSTAR>.3827E-3</BSTAR><MEAN_MOTION_DOT>.1018E-4</MEAN_MOTION_DOT><MEAN_MOTION_DDOT>0</MEAN_MOTION_DDOT></tleParameters></data></segment></body></omm>
<omm id="CCSDS_OMM_VERS" version="2.0">
<header><CREATION_DATE/><ORIGINATOR/></header><body><segment><metadata><OBJECT_NAME>ORBCOMM FM32</OBJECT_NAME><OBJECT_ID>1999-065C</OBJECT_ID><CENTER_NAME>EARTH</CENTER_NAME><REF_FRAME>TEME</REF_FRAME><TIME_SYSTEM>UTC</TIME_SYSTEM><MEAN_ELEMENT_THEORY>SGP4</MEAN_ELEMENT_THEORY></metadata><data><meanElements><EPOCH>2025-11-29T04:45:55.438848</EPOCH><MEAN_MOTION>14.36698230</MEAN_MOTION><ECCENTRICITY>.0006079</ECCENTRICITY><INCLINATION>45.0164</INCLINATION><RA_OF_ASC_NODE>39.5783</RA_OF_ASC_NODE><ARG_OF_PERICENTER>156.9220</ARG_OF_PERICENTER><MEAN_ANOMALY>203.1902</MEAN_ANOMALY></meanElements><tleParameters><EPHEMERIS_TYPE>0</EPHEMERIS_TYPE><CLASSIFICATION_TYPE>U</CLASSIFICATION_TYPE><NORAD_CAT_ID>25982</NORAD_CAT_ID><ELEMENT_SET_NO>999</ELEMENT_SET_NO><REV_AT_EPOCH>35832</REV_AT_EPOCH><BSTAR>.43041E-3</BSTAR><MEAN_MOTION_DOT>.1138E-4</MEAN_MOTION_DOT><MEAN_MOTION_DDOT>0</MEAN_MOTION_DDOT></tleParameters></data></segment></body></omm>

</ndm>
